id_restaurant,place_name,address,latitude,longitude,cluster
1,Sate Bandeng Ibu Amenah Serang,"Jl. Sayabulu km 1, Lingk No.11, RT.2/RW.1, Dalung, Kec. Cipocok Jaya, Kota Serang, Banten 42127, Indonesia",-6.143376,106.149564,5
2,Sate Bandeng - Bekakak Ayam Hj. Mariyam,"Tengah, Jl. Ki Uju No.63, RT.003/RW.002, Tengah, Kec. Serang, Kota Serang, Banten 42116, Indonesia",-6.120695,106.150161,5
3,Sate Bandeng Ibu Aliyah,"Jl. Lopang Gede III, Lopang, Kec. Serang, Kota Serang, Banten 42111, Indonesia",-6.10664,106.157729,5
4,Rabeg Khas Serang H. Naswi (Magersari),"Jl. Mayor Safei No.30, Kotabaru, Kec. Serang, Kota Serang, Banten 42112, Indonesia",-6.11272,106.152353,5
5,Warung Dahar Rabeg Khas Wong Banten,"Jalan Ayip Usman, Link. Cikepuh, Unyur, Kec. Serang, Kota Serang, Banten 42111, Indonesia",-6.10531,106.170051,5
6,Nasi Rabeg Khas Cilegon,"Jl. Cut Nyak Dien, Jombang Wetan, Kec. Jombang, Kota Cilegon, Banten 42411, Indonesia",-6.01851,106.053926,5
7,Warung Nasi Gerem Asem,"Tanara, Serang Regency, Banten 42194, Indonesia",-6.033919,106.365856,5
8,Lesehan Gerem Asem,"Susukan, Tirtayasa, Serang Regency, Banten 42193, Indonesia",-6.00379,106.294041,5
9,Kedai Gerem Asem (Masakan Khas Pontang),"Pengampelan, Walantaka, Serang City, Banten 42183, Indonesia",-6.142791,106.247909,5
10,Ketan Bintul Teh Ipah,"Jl. Maulana Hasanudin No.82, Kotabaru, Kec. Serang, Kota Serang, Banten 42112, Indonesia",-6.11115,106.154395,5
11,Ketan Bintul Ibu Hamdanah,"kampung baru, Kagungan, Kec. Serang, Kota Serang, Banten 42114, Indonesia",-6.106209,106.153338,5
12,Ketan Bintul Hj. Ras Kaujon,"Rumah cat putih depan kuburan, Jl. 45 no. 05, Jl. Kaujon Kidul No.013, RT.03, Serang, Banten 42116, Indonesia",-6.122006,106.14748,5
13,Nasi Bakar Sumsum Pisangmas - SERANG,"Pisang Mas, Jl. KH. TB. Achmad Khotib No.2, Cipare, Kec. Serang, Kota Serang, Banten 42117, Indonesia",-6.118225,106.157551,5
14,Nasi Sumsum Mang Puri Asli,"Jl. Kelapa Dua, Lontarbaru, Kec. Serang, Kota Serang, Banten 42115, Indonesia",-6.10832,106.147909,5
15,"Nasi Bakar Sumsum Ibu Mae, Permata","Jl. Intan No.72, Cipare, Kec. Serang, Kota Serang, Banten 42117, Indonesia",-6.128522,106.168229,5
16,RM Cep Udin Angeun Lada,"Pandeglang, Pandeglang Sub-District, Pandeglang Regency, Banten 42211, Indonesia",-6.301019,106.109559,5
17,Kerak telor Betawi,"Jalan.H.Mali No.30, RT.9/RW.8, Srengseng Sawah, Kec. Jagakarsa, Kota Jakarta Selatan, Daerah Khusus Ibukota Jakarta 12630, Indonesia",-6.340648,106.823141,1
18,KERAK TELOR KHAS BETAWI MAMPANG,"RT.3/RW.5, Menteng, Central Jakarta City, Jakarta 10310, Indonesia",-6.197139,106.828781,1
19,KERAK TELOR BANG DHORY,"Jl. Wr. Jati Bar. IV, RT.14/RW.5, Kalibata, Kec. Pancoran, Kota Jakarta Selatan, Daerah Khusus Ibukota Jakarta 12740, Indonesia",-6.267864,106.832581,1
20,Soto Betawi Haji Husen,"Jl. Padang Panjang No. 6C Pasar Manggis Setiabudi Jakarta Selatan DKI Jakarta 8 8, RT.8/RW.8, Ps. Manggis, Kecamatan Setiabudi, Kota Jakarta Selatan, Daerah Khusus Ibukota Jakarta 12850, Indonesia",-6.213032,106.844839,1
21,Soto Betawi H. Maruf,"Jl. RP. Soeroso No.36A 2, RT.2/RW.13, Gondangdia, Kec. Menteng, Kota Jakarta Pusat, Daerah Khusus Ibukota Jakarta 10350, Indonesia",-6.191948,106.835961,1
22,Soto Betawi Mpok Rodemah,"Jl. Ciputat Raya No.29 1, RT.1/RW.12, Pd. Pinang, Kec. Kby. Lama, Kota Jakarta Selatan, Daerah Khusus Ibukota Jakarta 12310, Indonesia",-6.271121,106.77522,1
23,Asinan Betawi H.Mansyur Kamboja,"Jl. Taman Kamboja No.10 8, RT.8/RW.11, Rawamangun, Kec. Pulo Gadung, Kota Jakarta Timur, Daerah Khusus Ibukota Jakarta 13220, Indonesia",-6.200867,106.884973,1
24,Asinan Betawi Asymuni/H. Udin/Hj. Tati,"Jalan Pisangan Baru RT 002, RW05 No.31, Kec. Matraman, Daerah Khusus Ibukota Jakarta 13110, Indonesia",-6.211622,106.867136,1
25,Asinan Betawi Bang Sawal,"Jl. Arjuna Utara No.12, RT.12/RW.1, Tj. Duren Sel., Kec. Grogol petamburan, Kota Jakarta Barat, Daerah Khusus Ibukota Jakarta 11470, Indonesia",-6.182204,106.792234,1
26,"Ketoprak Ciragil & Baso, Siomay Jhony","Jl. Cikatomas 1 No.29, RT.5/RW.1, Rw. Bar., Kec. Kby. Baru, Kota Jakarta Selatan, Daerah Khusus Ibukota Jakarta 12180, Indonesia",-6.237174,106.810392,1
27,Gado Gado Taman Sari Raya,"Jl. Taman Sari No.65 12, RT.12/RW.1, Kota Tua, Kec. Taman Sari, Kota Jakarta Barat, Daerah Khusus Ibukota Jakarta 11150, Indonesia",-6.152821,106.826891,1
28,Gado-Gado Kartika,"Jl. Sekolah Duta V, RT.3/RW.14, Pd. Pinang, Kec. Kby. Lama, Kota Jakarta Selatan, Daerah Khusus Ibukota Jakarta 12310, Indonesia",-6.286038,106.781838,1
29,Gado-Gado Cemara (Sejak 1947),"Jalan Tanah Abang 5 No.36 Gambir RT.13, 14, RT.14/RW.4, Petojo Sel., Kecamatan Gambir, Kota Jakarta Pusat, Daerah Khusus Ibukota Jakarta 10160, Indonesia",-6.179446,106.813638,1
30,RM Nasi Timbel,"Jalur Cikampek - Padalarang No.717, Sumurbandung, Kec. Cipatat, Kabupaten Bandung Barat, Jawa Barat 40554, Indonesia",-6.781262,107.43709,3
31,Nasi Timbel Kahuripan,"Jl. Dr. Rajiman, Pasteur, Kec. Sukajadi, Kota Bandung, Jawa Barat 40161, Indonesia",-6.903949,107.599282,3
32,Nasi Timbel Pangandaran,"Jl. A. Yani No.823, Padasuka, Kec. Cibeunying Kidul, Kota Bandung, Jawa Barat 40125, Indonesia",-6.904533,107.65069,3
33,Batagor KPK,"Jl. Babakan Tarogong No.125, Suka Asih, Kec. Bojongloa Kaler, Kota Bandung, Jawa Barat 40232, Indonesia",-6.932149,107.591644,3
34,Batagor Burangrang,"Jl. Burangrang. 7 Seberang Sekolah BPI Burangrang, Malabar, Kec. Lengkong, Kota Bandung, Jawa Barat 40262, Indonesia",-6.923671,107.620195,3
35,Batagor Bandung haji iman tahu,"Jl. Babakan Irigasi Gg. AMD VIII, Babakan Tarogong, Kec. Bojongloa Kaler, Kota Bandung, Jawa Barat 40232, Indonesia",-6.929882,107.593526,3
36,Warung Karedok,"Mulyasari, Pataruman, Banjar City, West Java 46335, Indonesia",-7.369956,108.584101,3
37,Karedok Lotek Mmah Candra,"Btn griya kondang lestari blok D.3 No.11 rt/rw 023/007, desa, Cikancana, Kec. Gekbrong, Kabupaten Cianjur, Jawa Barat 43261, Indonesia",-6.884666,107.080644,3
38,Karedok,"Sukaratu, Tasikmalaya Regency, West Java 46415, Indonesia",-7.27598,108.143231,3
39,Nasi Liwet Cisitu,"Jl. Cisitu Lama No.46, Dago, Kecamatan Coblong, Kota Bandung, Jawa Barat 40135, Indonesia",-6.880517,107.612017,3
40,Warung Nasi Liwet Saung Babakan Cinta,"Jl. Ciloa No.km 6, Pasirhalang, Kec. Cisarua, Kabupaten Bandung Barat, Jawa Barat 40551, Indonesia",-6.824384,107.528934,3
41,Nasi Liwet Solo,"Jl. Sumber Mekar No.35-5, Babakan, Kec. Babakan Ciparay, Kota Bandung, Jawa Barat 40222, Indonesia",-6.933547,107.575851,3
42,bakakak ayam kampung Abah enyeng,"Jl. Cagak No.20, Jalancagak, Kec. Kasomalang, Kabupaten Subang, Jawa Barat 41281, Indonesia",-6.684877,107.707128,3
43,Bakakak Ayam Kampung Pak Caban,"Jl. Mandor Senan, Cipenjo, Kec. Cileungsi, Kabupaten Bogor, Jawa Barat 16820, Indonesia",-6.393967,106.988618,1
44,"Warung Bakakak Ayam Kampung ""Bilqis"" Ma Een Cibodas","Cibodas, Kertamekar, Kec. Tanjungkerta, Kabupaten Sumedang, Jawa Barat 45354, Indonesia",-6.748031,107.892493,3
45,Mie Kocok Bandung Sahabat,"Jl. Dr. Djunjunan No.45, Pamoyanan, Kec. Cicendo, Kota Bandung, Jawa Barat 40173, Indonesia",-6.89761,107.592396,3
46,Mie Kocok Kebun Jukut,"Jl. Kb. Jukut No.3, Babakan Ciamis, Kec. Sumur Bandung, Kota Bandung, Jawa Barat 40117",-6.914374,107.60509,3
47,Mie Kocok Pak Kumis,"Jl. Buah Batu No.165, Cijagra, Kec. Lengkong, Kota Bandung, Jawa Barat 40265, Indonesia",-6.944116,107.629688,3
48,Seblak Sultan,"Jl. Sultan Agung No.7, Citarum, Kec. Bandung Wetan, Kota Bandung, Jawa Barat 40115, Indonesia",-6.904862,107.611552,3
49,Seblak Lumpia Mamah Fikri,"Jl. Griya Bandung Indah No.5 Blok F17, Buahbatu, Kec. Bojongsoang, Kabupaten Bandung, Jawa Barat 40287, Indonesia",-7.801186,107.67078,2
50,Seblak Bandung Si Gacor,"Jl. M. Nasir, Cilodong, Kec. Cilodong, Kota Depok, Jawa Barat 16414, Indonesia",-6.431238,106.847806,1
51,Tahu Petis Semarang,"Jl. Dr. Rajiman No.408, Bumi, Kec. Laweyan, Kota Surakarta, Jawa Tengah 57148, Indonesia",-7.571139,110.803904,2
52,Tahu Petis ECO Asli Semarang,"Jl. Yos Sudarso, Dawung, Magelang Tengah, Kota Magelang, Jawa Tengah 57155, Indonesia",-7.587563,110.818328,2
53,Tahu Petis Yudhistira - Semarang,"Jl. Yudistira No.21, Pendrikan Kidul, Kec. Semarang Tengah, Kota Semarang, Jawa Tengah 50131, Indonesia",-6.981935,110.407407,4
54,Tempe Mendoan,"Jl. Bend. No.18, Kaliputih, Sempor, Kec. Sempor, Kabupaten Kebumen, Jawa Tengah 54421, Indonesia",-7.566934,109.489361,2
55,Tempe Mendoan Mbah Sumaryo,"sumur amba, Jl. Raya Kecila-Kemranjen No.54 RT02, RW.13, Telengrejo, Kebarongan, Kemranjen, Banyumas Regency, Central Java 53194, Indonesia",-7.593293,109.284782,2
56,Tempe Mendoan Jumbo Borobudur / Vegan Food Borobudur,"Ngaran I, RT.:003/RW.:005, Dusun XVIII, Borobudur, Kec. Borobudur, Kabupaten Magelang, Jawa Tengah 56553, Indonesia",-7.609027,110.211477,2
57,Warung Nasi Gandul kasmaran pak Mutiman,"Jl. Kiai Saleh, RT.1/RW.1, Kaborongan, Pati Lor, Kec. Pati, Kabupaten Pati, Jawa Tengah 59111, Indonesia",-6.751894,111.037344,4
58,Nasi Gandul Pak Meled,"Krajan Gajah Mati, Gajahmati, Pati, Pati Regency, Central Java 59116, Indonesia",-6.7584,111.045344,4
59,Nasi Gandul - Bu Harni,"Pekunden, Semarang Tengah, Semarang City, Central Java 50134, Indonesia",-6.987917,110.427089,4
60,Dawet Ireng Khas Purworejo,"Jl. Cempaka No.47, Ngepos, Klaten, Kec. Klaten Tengah, Kabupaten Klaten, Jawa Tengah 57411, Indonesia",-7.708277,110.602179,2
61,warung dawet ireng,"Jl. Butuh - Klepu, Krajan, Butuh, Kec. Butuh, Kabupaten Purworejo, Jawa Tengah 54264, Indonesia",-7.721971,109.855012,2
62,Dawet Ireng,"Jl. Ir. H Juanda No.1-16, Tegalsari, Purworejo, Kec. Purworejo, Kabupaten Purworejo, Jawa Tengah 54151, Indonesia",-7.702178,110.016975,2
63,RM. Brekecek Pathak Jahan Bu WIDI,"Jl. Slamet No.5, Cilacap, Sidanegara, Kec. Cilacap Tengah, Kabupaten Cilacap, Jawa Tengah 53212, Indonesia",-7.72507,109.015002,2
64,"Lumpia Semarang ""BAROKAH""","Kepatihan Wetan, Jebres, Surakarta City, Central Java 57129, Indonesia",-7.562958,110.833204,2
65,LUMPIA SEMARANG DEPAN ORION SOLO,"Jalan Urip Sumoharjo No. 80, Jebres, Purwodiningratan, Kec. Jebres, Kota Surakarta, Jawa Tengah 57126, Indonesia",-7.56586,110.833819,2
66,Lumpia Semarang Mbak Wien,"Jl. Blimbing I No.3B, Kerten, Kec. Laweyan, Kota Surakarta, Jawa Tengah 57155, Indonesia",-7.558393,110.788041,2
67,Kue ganjel rel Nyonyah cakery,"Jl. Pandean Lamper III No.32, Peterongan, Kec. Semarang Sel., Kota Semarang, Jawa Tengah 50242, Indonesia",-6.998544,110.436752,4
68,Toetjoeh Ganjel Rel,"perumahan pandanaran hill, Jl. Pandan Biru I Blk. A No.A21, Mangunharjo, Kec. Tembalang, Kota Semarang, Jawa Tengah 50276, Indonesia",-7.036253,110.461436,4
69,Ganjel Rel Semarang [oemahganjelrel],"Jl. Giri Mukti Bar. No.3, Tlogosari Kulon, Kec. Pedurungan, Kota Semarang, Jawa Tengah 50196, Indonesia",-6.98947,110.461921,4
70,Gudeg Balap Jogja,"Jl. Kadipaten Kidul No.32, Kadipaten, Kecamatan Kraton, Kota Yogyakarta, Daerah Istimewa Yogyakarta 55132, Indonesia",-7.808532,110.357844,2
71,Gudeg Jogja,"Jl. Panembahan Senopati, Prawirodirjan, Kec. Gondomanan, Kota Yogyakarta, Daerah Istimewa Yogyakarta 55121, Indonesia",-7.8019,110.368725,2
72,Gudeg mBok Joyo,"Jl. Tamanan No.265, Patehan, Kecamatan Kraton, Kota Yogyakarta, Daerah Istimewa Yogyakarta 55131, Indonesia",-7.809511,110.360826,2
73,Gudeg Permata Bu Narti,"Jl. Gajah Mada No.2, Gunungketur, Pakualaman, Kota Yogyakarta, Daerah Istimewa Yogyakarta 55111, Indonesia",-7.801186,110.373178,2
74,"Sate Klathak dan Bakmi Jowo Pak Jede, Nologaten","Jl. Nologaten No.46, Nologaten, Condongcatur, Kec. Depok, Kabupaten Sleman, Daerah Istimewa Yogyakarta 55283, Indonesia",-7.77382,110.400832,2
75,Sate Klathak Pak Pong,"Jl. Sultan Agung No.18, Jejeran II, Wonokromo, Kec. Pleret, Kabupaten Bantul, Daerah Istimewa Yogyakarta 55791, Indonesia",-7.871461,110.387427,2
76,Sate Klathak Wirosaban (Spesial Hotplate),"Jl. Wirosaban Barat No.02, Sorosutan, Kec. Umbulharjo, Kota Yogyakarta, Daerah Istimewa Yogyakarta 55162, Indonesia",-7.825445,110.375794,2
77,Sate Klathak Mak Adi,"Jl. Imogiri Tim. No.KM 9, Jati, Wonokromo, Kec. Pleret, Kabupaten Bantul, Daerah Istimewa Yogyakarta 55791, Indonesia",-7.865437,110.389924,2
78,"Oseng Mercon 62, ?????????????????","Jl. KH. Ahmad Dahlan No.62, Ngampilan, Kota Yogyakarta, Daerah Istimewa Yogyakarta 55261, Indonesia",-7.801128,110.36018,2
79,Oseng Mercon,"Jl. Maguwo No.640, Karang Janbe, Banguntapan, Kec. Banguntapan, Kabupaten Bantul, Daerah Istimewa Yogyakarta 55198, Indonesia",-7.798555,110.41008,2
80,Oseng Oseng Mercon Bu Titik,"Jl. KH. Ahmad Dahlan No.10, Ngupasan, Kec. Gondomanan, Kota Yogyakarta, Daerah Istimewa Yogyakarta 55122, Indonesia",-7.801186,110.362789,2
81,"Oseng Oseng Mercon Bu Ria, ??????????????????????","Jl. KH. Ahmad Dahlan No.46, Ngampilan, Kota Yogyakarta, Daerah Istimewa Yogyakarta 55122, Indonesia",-7.801154,110.361383,2
82,Bakpia Pathok 25 Pathok Jaya,"Jl. Karel Sasuit Tubun No.12-14, Ngampilan, Kota Yogyakarta, Daerah Istimewa Yogyakarta 55261, Indonesia",-7.797471,110.361295,2
83,BAKPIA PATHOK,"Jl. KH. Ahmad Dahlan No.25, Ngupasan, Kec. Gondomanan, Kota Yogyakarta, Daerah Istimewa Yogyakarta 55122, Indonesia",-7.80124,110.363546,2
84,bakpia pathok 25 online delivery,"Ngampilan, Yogyakarta City, Special Region of Yogyakarta 55261, Indonesia",-7.79746,110.35784,2
85,BAKPIA PATHOK 25 AHMAD DAHLAN,"Jl. KH. Ahmad Dahlan, Notoprajan, Kec. Gondomanan, Kota Yogyakarta, Daerah Istimewa Yogyakarta 55122, Indonesia",-7.801245,110.363531,2
86,Sate kere,"Jl. Bantul, Gedongkiwo, Kec. Mantrijeron, Kota Yogyakarta, Daerah Istimewa Yogyakarta, Indonesia",-7.822596,110.355123,2
87,Sate Kere Bu Sudinem,"Ngupasan, Gondomanan, Yogyakarta City, Special Region of Yogyakarta 55122, Indonesia",-7.799038,110.365265,2
88,Sate Kere Daging Sapi Bu Suwarni,"Jl. Pabringan No.16, Ngupasan, Kec. Gondomanan, Kota Yogyakarta, Daerah Istimewa Yogyakarta 55122, Indonesia",-7.799098,110.365953,2
89,Sate Kere Beringharjo,"Jl. Margo Mulyo, Ngupasan, Kec. Gondomanan, Kota Yogyakarta, Daerah Istimewa Yogyakarta 55122, Indonesia",-7.799033,110.365224,2
90,Sego Krecek Giwangan,"Giwangan, Umbulharjo, Yogyakarta City, Special Region of Yogyakarta 55163, Indonesia",-7.833174,110.388035,2
91,Krecek Jogja,"Guyangan, Wonolelo, Kec. Pleret, Kabupaten Bantul, Daerah Istimewa Yogyakarta 55791, Indonesia",-7.884261,110.432393,2
92,"Krecek Sayur dan Rambak Asin Cap ""Bintang""","Segoroyoso I, Segoroyoso, Pleret, Bantul Regency, Special Region of Yogyakarta 55791, Indonesia",-7.881377,110.411591,2
93,Grosir Rambak Dan Krecek Jogja (Produsen),"Village Inn, Jl. Menukan Jl. Karangkajen No.5, Brontokusuman, Mergangsan, Yogyakarta City, Special Region of Yogyakarta 55153, Indonesia",-7.824369,110.370339,2
94,Thiwul Ayu Mbok Sum,"Jalan Mangunan KM.4.5, RT.15, Mangunan, Dlingo, Cempluk, Mangunan, Kec. Dlingo, Kabupaten Bantul, Daerah Istimewa Yogyakarta 55783, Indonesia",-7.930959,110.424714,2
95,Tiwul Bu Sum,"Jl. Imogiri - Dlingo, Cempluk, Mangunan, Kec. Dlingo, Kabupaten Bantul, Daerah Istimewa Yogyakarta 55783, Indonesia",-7.930947,110.424759,2
96,Tiwul Tumplek Sego Abang,"Jl. Munggur, Demangan, Kec. Gondokusuman, Kota Yogyakarta, Daerah Istimewa Yogyakarta 55221, Indonesia",-7.786531,110.38695,2
97,Gathot Thiwul Yu Tum,"Jl. Pramuka No.36, Pandansari, Wonosari, Kec. Wonosari, Kabupaten Gunung Kidul, Daerah Istimewa Yogyakarta 55812, Indonesia",-7.963819,110.609134,2
98,Soto Lamongan,"Jl. Sunan Drajat, Drajat, Kec. Paciran, Kabupaten Lamongan, Jawa Timur 62264, Indonesia",-6.885289,112.389242,4
99,Asih Jaya Restaurant Soto Lamongan,"Jl. Panglima Sudirman No.84, Dapur Timur, Banjarmendalan, Kec. Lamongan, Kabupaten Lamongan, Jawa Timur 62212, Indonesia",-7.113368,112.421369,0
100,Soto Ayam Lamongan Cak Mardi,"Jl. KH. Ahmad Dahlan No.53, Jetis, Tlogoanyar, Kec. Lamongan, Kabupaten Lamongan, Jawa Timur 62218, Indonesia",-7.123142,112.418759,0
101,Soto Ayam Prapatan Bandaran,"Jl. Andansari No.105, Ngaglik Timur, Sukorejo, Kec. Lamongan, Kabupaten Lamongan, Jawa Timur 62215, Indonesia",-7.117926,112.413291,0
102,Rawon Rosobo,"Jalan Raya Mojoagung No.191, Mojoagung, Pekunden, Kademangan, Jombang, Kabupaten Jombang, Jawa Timur 61482, Indonesia",-7.569609,112.345637,0
103,Rawon Setan - Embong Malang,"No.78/I, Jl. Embong Malang, Genteng, Kec. Genteng, Surabaya, Jawa Timur 60261, Indonesia",-7.2592,112.735177,0
104,Warung Crew Rawon Jawa Timur,"Jl. Raya Surabaya - Malang No.24, Krajan Kulon, Waru, Kec. Waru, Kabupaten Sidoarjo, Jawa Timur 61256, Indonesia",-7.361479,112.729118,0
105,RAWON DINOYO RAWON P.RAMELAN CABANG 1,"Jl. Tirto Utomo No.68 D, Dusun Rambaan, Landungsari, Kec. Dau, Kabupaten Malang, Jawa Timur 65151, Indonesia",-7.926801,112.594738,0
106,Rujak Cingur Jawa Bu Umi,"Samping, Jl. Kemantren 3 No.21, Bandungrejosari, Kec. Sukun, Kota Malang, Jawa Timur 65148, Indonesia",-8.003713,112.611747,0
107,Rujak Cingur Joko Dolog,"Taman Apsari St, Embong Kaliasin, Genteng, Surabaya, East Java 60271, Indonesia",-7.264973,112.742677,0
108,Rujak Cingur Mbak Ida,"Jl. Kenangan No.39-49, Ambengambeng, Ngingas, Kec. Waru, Kabupaten Sidoarjo, Jawa Timur 61256, Indonesia",-7.357355,112.749752,0
109,Achmad Jais Cingur Rujak,"Jl. Achmad Jais No.40, Peneleh, Kec. Genteng, Surabaya, Jawa Timur 60274, Indonesia",-7.255425,112.740202,0
110,Warung PECEL TUMPANG,"Jl. Kilisuci No.14, Setono Pande, Kec. Kota, Kota Kediri, Jawa Timur 64129, Indonesia",-7.823322,112.018273,0
111,Pecel Tumpang Mbak Ti Pasar Perak,"Jl. Panglima Sudirman, Perak, Kec. Jombang, Kabupaten Jombang, Jawa Timur 61461, Indonesia",-7.578295,112.152257,0
112,Pecel Tumpang Bu Yuni,"Jl. Penanggungan No.46, Lirboyo, Kec. Mojoroto, Kabupaten Kediri, Jawa Timur 64117, Indonesia",-7.82231,111.997965,0
113,Warung Pecel Tumpang Bu TOMO,"Jl. Veteran Gg. II, Bujel, Kec. Mojoroto, Kota Kediri, Jawa Timur 64119, Indonesia",-7.807203,111.995591,0
114,Lontong Balap Asli Pak Gendut (Pusat),"Jl. Embong Malang No.38, Genteng, Kec. Genteng, Surabaya, Jawa Timur 60275, Indonesia",-7.259841,112.736849,0
115,Lontong Balap H.Hasyim,"Jl. Barata Jaya XVII No.62, Baratajaya, Kec. Gubeng, Surabaya, Jawa Timur 60284, Indonesia",-7.30524,112.760683,0
116,LONTONG BALAP PAK GENDUT SURABAYA,"di PKL-TANPA PHOTO, Jl. Kranggan depan bioskop garuda lama No.71, Sawahan, Kec. Sawahan, Surabaya, Jawa Timur 60174, Indonesia",-7.256052,112.732011,0
117,Lontong Balap Pakde Bejo,"Jl. Ngagel Jaya Utara No.53, RT.002/RW.04, Pucang Sewu, Kec. Gubeng, Surabaya, Jawa Timur 60283, Indonesia",-7.28886,112.754491,0
118,Bakso Malang Cak Die,"Veteran, Penanggungan, Kec. Klojen, Kota Malang, Jawa Timur 65145, Indonesia",-7.956379,112.616854,0
119,Bakso Malang Pak Jun,"Jl. Doktor Sutomo, Klojen, Kec. Klojen, Kota Malang, Jawa Timur 65111, Indonesia",-7.971538,112.635781,0
120,BAKSO MALANG CAK CULL,"Jl. Sigura - Gura No.34, Sumbersari, Kec. Lowokwaru, Kota Malang, Jawa Timur 65145, Indonesia",-7.957737,112.607584,0
121,Bakso Malang,"Pujasera Gandrung No.6 Jl. Bima Sakti no.2 Lowokwaru, Merjosari, Kec. Lowokwaru, Kota Malang, Jawa Timur 65144, Indonesia",-7.94073,112.593025,0
122,Bebek Sinjay A. Yani,"Ruko Grand Ahmad Yani Blok 151H, Jl. Ahmad Yani, Jemur Wonosari, Kec. Wonocolo, Surabaya, Jawa Timur 60237, Indonesia",-7.328049,112.731997,0
123,Bebek Sinjay Dharmahusada,"Jl. Dharmahusada No.160B, Mojo, Kec. Gubeng, Surabaya, Jawa Timur 60285, Indonesia",-7.268046,112.771178,0
124,Bebek Sinjay,"Jl. Raya Ponti No.3, Wismasarinadi, Magersari, Kec. Sidoarjo, Kabupaten Sidoarjo, Jawa Timur 61212, Indonesia",-7.446226,112.704848,0
125,Bebek Sinjay Tidar,"Jl. Tidar No.1, Sawahan, Kec. Sawahan, Surabaya, Jawa Timur 60251, Indonesia",-7.258443,112.732627,0
126,Gethuk Pisang Kediri,"Jln Raya, Putih, Kediri Kertosono, Kabupaten Kediri, Jawa Timur 64182, Indonesia",-7.778493,112.019259,0
127,GETUK PISANG HIDAYAH,"Jl. Kertoyudo No.152, Kwagean, Jatisari, Kec. Kepung, Kabupaten Kediri, Jawa Timur 64293, Indonesia",-7.791549,112.246852,0
128,Gethuk Pisang,"Jl. Ketapang III, Dusun Ketapang, Suko, Kec. Sukodono, Kabupaten Sidoarjo, Jawa Timur 61258, Indonesia",-7.374455,112.700807,0
129,Getuk Pisang Istimewa Pattimura,"Jl. Pattimura No.61, Jagalan, Kec. Kota, Kota Kediri, Jawa Timur 64125, Indonesia",-7.820862,112.013942,0
130,RM Rajungan Manunggal Jaya,"Jl. Manunggal No.100, Keduran, Panyuran, Kec. Palang, Kabupaten Tuban, Jawa Timur 62318, Indonesia",-6.904956,112.080646,4
131,Kare Rajungan Dan Nasi Cumi,"Jl. Ahmad Yani, Megersari, Gedangan, Kec. Gedangan, Kabupaten Sidoarjo, Jawa Timur 61254, Indonesia",-7.385179,112.728393,0
132,Warung Kare Rajungan Cak Pur,"RT.02/RW.01, Bogem, Kebonagung, Sukodono, Sidoarjo Regency, East Java 61258, Indonesia",-7.414867,112.673373,0
133,OEMAH BLARAK (kare rajungane Make),"Kepoh, Panyuran, Palang, Tuban Regency, East Java 62391, Indonesia",-6.89465,112.090687,4
134,Central Sate Bandeng Ibu Mamah,"Sukamanah, Baros, Serang Regency, Banten 42173, Indonesia",-6.221386,106.131173,5
135,Warung Makan Sate Bandeng Kang Agus Khans Banten,"Jl. Jend. Sudirman No.39, Sumurpecung, Kec. Serang, Kota Serang, Banten 42118, Indonesia",-6.12039,106.177155,5
136,Sate Bandeng Bunda,"Jl. Raya Karang Bolong No.123, Cikoneng, Kec. Anyar, Kabupaten Serang, Banten 42166, Indonesia",-6.06972,105.88881,5
137,"Sate Bandeng ""Ratu Toety""","Jl. Jayadiningrat No.22, RT.002/RW.06, Lontarbaru, Kec. Serang, Kota Serang, Banten 42115, Indonesia",-6.117864,106.147867,5
138,"Rabeg khas Banten, sop sapi","W5R5+J77, Jl. Raya Banten, Kasunyatan, Kec. Kasemen, Kota Serang, Banten 42191, Indonesia",-6.058459,106.158171,5
139,Rumah Makan Rabeg Kambing NONG Ni,"X2HJ+8WM, Jl. Kubang Lesung, Taman Baru, Kec. Citangkil, Kota Cilegon, Banten 42441, Indonesia",-6.021664,106.032311,5
140,Warung Rabeg,"V6FM+HH6, Citerep, Ciruas, Serang Regency, Banten 42182, Indonesia",-6.12604,106.233904,5
141,Rabeg Mang Ubay,"X576+8R3, Jl. Ps. Karangantu, Banten, Kec. Kasemen, Kota Serang, Banten 42191, Indonesia",-6.036731,106.162042,5
142,Warung Rabeg H. Markan cabang ke 2,"Jl. Raya Petir - Serang depan RSS Pemda, Cilaku, Kec. Curug, Kota Serang, Banten 42121, Indonesia",-6.15217,106.178273,5
143,Rabeg Taktakan Dede Fadel,"Jl. Mayor Muslich, Serang, Kec. Serang, Kota Serang, Banten, Indonesia",-6.120833,106.140088,5
144,Kedai Rabeg Khas Serang,"Panancangan, Cipocok Jaya, Serang City, Banten, Indonesia",-6.12036,106.184226,5
145,Rabeg Gledek Hj Yayah,"Perum Bayan Agung Indah, Banjaragung, Kec. Cipocok Jaya, Kota Serang, Banten 42122, Indonesia",-6.124407,106.202425,5
146,Rabeg & Sop Iga Serdang Serang,"Jl. Teuku Cikditiro No.127-135, Sukmajaya, Kec. Jombang, Kota Cilegon, Banten 42416, Indonesia",-6.03805,106.080221,5
147,Warung Nasi Bu Dedi (RABEG Khas Serang),"Unyur, Serang, Serang City, Banten 42111, Indonesia",-6.103063,106.163938,5
148,Waroeng Rabeg iis,"Jl. Ki Ajurum No.101, Cipocok Jaya, Kec. Cipocok Jaya, Kota Serang, Banten 42121, Indonesia",-6.13676,106.170574,5
149,Warung Rabeg & Pindang Mang Sam,"Jl. Arga Raya Blok E1 No. 10, Kotasari, Grogol, Kotasari, Kec. Gerogol, Kota Cilegon, Banten 42436, Indonesia",-5.988018,106.023916,5
150,RABEG WONG CILEGON,"XX98+WG6, Jl. Lingkar Selatan, Randakari, Kec. Ciwandan, Kota Cilegon, Banten 42446, Indonesia",-6.030219,105.96627,5
151,RABEG RATU AMINAH BANTEN,"Link kepandean, Kagungan, Kec. Serang, Kota Serang, Banten 42114, Indonesia",-6.110965,106.145421,5
152,Sate Bandeng Mba Lies Pusat Oleh-oleh Cilegon,"Jl. Raya Cilegon, Cibeber, Kec. Cibeber, Kota Cilegon, Banten 42423, Indonesia",-6.028428,106.074155,5
153,Sate Bandeng Ibu Mulyati,"Jl. Jaksa Agung R. Soeprapto No.KM. 3, Karundang, Kec. Cipocok Jaya, Kota Serang, Banten 42125, Indonesia",-6.142477,106.160493,5
154,Sate Bandeng Hj.Yoyok Ciracas,"Jl. Perum Bukit Permai No.2 Blok J, Serang, Serang City, Banten 42116, Indonesia",-6.126367,106.141502,5
155,Sate Bandeng Ibu Mamah,"V4CV+J52, Jl. Raya Sepang, Serang, Kec. Serang, Kota Serang, Banten 42116, Indonesia",-6.128473,106.142856,5
156,Sate Bandeng Sampurna,"Jl. Ahmad Yani No.22, RT.3/RW.4, Cipare, Kec. Serang, Kota Serang, Banten 42117, Indonesia",-6.118565,106.158744,5
157,Soto Betawi Globe H.Oji,"Jl. Samanhudi No.4, RT.1/RW.3, Ps. Baru, Kecamatan Sawah Besar, Kota Jakarta Pusat, Daerah Khusus Ibukota Jakarta 10710, Indonesia",-6.16119,106.833138,1
158,Soto Betawi,"9, Jl. Salemba Tengah No.65c, RT.9/RW.8, Paseban, Kec. Senen, Kota Jakarta Pusat, Daerah Khusus Ibukota Jakarta 10440, Indonesia",-6.193366,106.855974,1
159,Soto dan Sop Khas Betawi Bang Nawi Tanjung Duren,"Jl. Tanjung Duren Raya No.362, RT.7/RW.3, Tj. Duren Utara, Kec. Grogol petamburan, Kota Jakarta Barat, Daerah Khusus Ibukota Jakarta 11470, Indonesia",-6.173622,106.783171,1
160,Soto Betawi H. Ma ruf,"Wisma Tebet Raya, Jl. Tebet Raya No.23, RT.1/RW.2, Tebet Tim., Kec. Tebet, Kota Jakarta Selatan, Daerah Khusus Ibukota Jakarta 12820, Indonesia",-6.229587,106.852856,1
161,SOTO BETAWI H. YAKUB,"QQ7H+5R8, Jl. Kb. Mangga 4, RT.1/RW.2, Cipulir, Kec. Kby. Lama, Kota Jakarta Selatan, Daerah Khusus Ibukota Jakarta 12230, Indonesia",-6.237116,106.779571,1
162,Soto Betawi Rawamangun,"Jl. Tenggiri No 18A RT.007/RW.06 Rawamangun, Jati, Kec. Pulo Gadung, Kota Jakarta Timur, Daerah Khusus Ibukota Jakarta 13220, Indonesia",-6.200472,106.893923,1
163,Soto Betawi H. Ma ruf,"Jl. Pramuka No.64, Utan Kayu Utara, Kec. Matraman, Kota Jakarta Timur, Daerah Khusus Ibukota Jakarta 10330, Indonesia",-6.193067,106.864649,1
164,Soto Betawi Bang Ujang,"1, Jl. Kyai Maja No.53, RT.1/RW.3, Gunung, Kec. Kby. Baru, Kota Jakarta Selatan, Daerah Khusus Ibukota Jakarta 12120, Indonesia",-6.241493,106.790046,1
165,Soto Betawi Haji Mamat,"Jl. Mandala Raya No.10 13, RT.13/RW.5, Tomang, Kec. Grogol petamburan, Kota Jakarta Barat, Daerah Khusus Ibukota Jakarta 11440, Indonesia",-6.176088,106.799295,1
166,SOTO ROXY BETAWI H. DARWASA,"Jl. Tidore No.2, RT.1/RW.5, Cideng, Kecamatan Gambir, Kota Jakarta Pusat, Daerah Khusus Ibukota Jakarta 10150, Indonesia",-6.166637,106.807545,1
167,Soto Betawi Bang Udin,"Jl. Lapangan Tembak Cibubur RT 10/2 No.4, Daerah Khusus Ibukota Jakarta 13720, Indonesia",-6.350942,106.877955,1
168,Soto Betawi Sambung Nikmat,"Jl. Ciputat Raya No.2, RT.8/RW.6, Pd. Pinang, Kec. Kby. Lama, Kota Jakarta Selatan, Daerah Khusus Ibukota Jakarta 12310, Indonesia",-6.276953,106.772941,1
169,Soto Betawi Bang Sawit,"Jl. H. R. Rasuna Said, RT.2/RW.5, Karet Kuningan, Kecamatan Setiabudi, Kota Jakarta Selatan, Daerah Khusus Ibukota Jakarta 12940, Indonesia",-6.218556,106.834568,1
170,Soto Betawi Bang Nawi,"Jl. Kh MAS Mansyur Gg. Riban No.1, Kb. Melati, Kecamatan Tanah Abang, Kota Jakarta Pusat, Daerah Khusus Ibukota Jakarta 10230, Indonesia",-6.19652,106.81602,1
171,Kerak Telor Bang Ade,"Jl. Satria I No.261, RT.9/RW.2, Ujung Menteng, Kec. Cakung, Kota Jakarta Timur, Daerah Khusus Ibukota Jakarta 13960, Indonesia",-6.187385,106.966314,1
172,Kerak Telor Pak Dudu,"Jl. Pejaten Barat II No.43 6, RT.6/RW.8, Pejaten Bar., Ps. Minggu, Kota Jakarta Selatan, Daerah Khusus Ibukota Jakarta 12510, Indonesia",-6.268715,106.828239,1
173,Kerak telor mpok ayu,"Jl :prumpung barat. Rt:09/05 rawa bunga, jatinegara No 10, RT.9/RW.5, Rw. Bunga, Jakarta, Kota Jakarta Timur, Daerah Khusus Ibukota Jakarta 13350, Indonesia",-6.221385,106.872424,1
174,Kerak Telor Tunas Betawi,"h Nasir rt002/002 no.28c, RT.2/RW.2, Srengseng, Kec. Kembangan, Kota Jakarta Barat, Daerah Khusus Ibukota Jakarta 11630, Indonesia",-6.204854,106.756045,1
175,Kerak Telor Khas Betawi Al Aziz,"prapatan SMK 32, Jl. Tebet Barat Dalam Raya, RT.20/RW.1, Tebet dalam raya, Kec. Tebet, Kota Jakarta Selatan, Daerah Khusus Ibukota Jakarta 12810, Indonesia",-6.229605,106.849835,1
176,"Kerak Telor Bang Doel, Sejak Tahun 2000","Jl. Pintu Air Raya No.68 6, RT.6/RW.1, Ps. Baru, Kecamatan Sawah Besar, Kota Jakarta Pusat, Daerah Khusus Ibukota Jakarta 10710, Indonesia",-6.163369,106.832664,1
177,Kerak Telor Babeh Abdul Rohman,"Jakarta Pusat 2 5, RT.2/RW.5, Menteng, Kec. Menteng, Kota Jakarta Pusat, Daerah Khusus Ibukota Jakarta 10310, Indonesia",-6.197719,106.82833,1
178,Bang egg crust Roy,"Jln swadaya pos rt 008/04 no 93, Pulo Gebang, Daerah Khusus Ibukota Jakarta 13950, Indonesia",-6.199406,106.95891,1
179,Tempe mendoan onoy,"Jl. Kemiri Raya No.15, Salatiga, Kec. Sidorejo, Kota Salatiga, Jawa Tengah 50711, Indonesia",-7.318558,110.497104,4
180,Tempe mendoan ( Azzam),"8H2J+RV5, Jetis, Ngrundul, Kebonarum, Klaten Regency, Central Java 57486, Indonesia",-7.697998,110.582194,2
181,TEMPE MENDOAN DAN TAHU PEDAS Mas Akbar Khas Purwokerto,"447W+GFV, Pengabean, Slerok, Tegal Timur, Tegal City, Central Java 52125, Indonesia",-6.886262,109.144941,3
182,Tempe Mendoan Jumbo [ TMJ ],"C793+PQJ, Pabelan Dua, Pabelan, Mungkid, Magelang Regency, Central Java 56512, Indonesia",-7.580659,110.25439,2
183,Rumah Produksi Tempe Mendoan Khas Cilacap ( DiajengChomel),"RT.01/RW.01, Dusun I, Malangan, Bulu, Sukoharjo Regency, Central Java 57563, Indonesia",-7.74704,110.80113,2
184,Tempe Mendoan Jumbo,"CW4Q+MVQ, Cangakan Timur, Cangakan, Karanganyar, Karanganyar Regency, Central Java 57716, Indonesia",-7.593231,110.939821,2
185,Mendoan Purwokerto,"Jl. Pringgading No.66, Jagalan, Kec. Semarang Tengah, Kota Semarang, Jawa Tengah 50136, Indonesia",-6.983053,110.430438,4
186,Tempe Mendoan 543,"Jl. Darma Bakti No.114, Medono, Kec. Pekalongan Bar., Kota Pekalongan, Jawa Tengah 51111, Indonesia",-6.906753,109.671967,4
187,TEMPE MENDOAN & TAHU BERONTAK,"Gondang Panjen Rt.10, Kebayanan 1, Jono, Kec. Tanon, Kabupaten Sragen, Jawa Tengah 57277, Indonesia",-7.401126,110.928717,2
188,Loenpia Mbak Lien,"Gg. Grajen Jl. Pemuda No.1, Pandansari, Kec. Semarang Tengah, Kota Semarang, Jawa Tengah 50138, Indonesia",-6.972757,110.421172,4
189,Lunpia Cik Me Me,"Jl. Gajahmada No.107, Miroto, Kec. Semarang Tengah, Kota Semarang, Jawa Tengah 50135, Indonesia",-6.984675,110.42181,4
190,Lumpia Lanny,"Jl. Kp. Plampitan No.81, Kembangsari, Kec. Semarang Tengah, Kota Semarang, Jawa Tengah 50138, Indonesia",-6.97686,110.420776,4
191,Lumpia Mini,"Jl. Kanalsari Tim. III No.13, Rejosari, Kec. Semarang Tim., Kota Semarang, Jawa Tengah 50125, Indonesia",-6.976688,110.440136,4
192,Lunpia Express,"AA, Jl. Gajahmada No.142, Gabahan, Kec. Semarang Tengah, Kota Semarang, Jawa Tengah 50135, Indonesia",-6.982652,110.421891,4
193,Lumpia Kartika Semarang,"No., Jl. MT. Haryono No.632, Purwodinatan, Kec. Semarang Tengah, Kota Semarang, Jawa Tengah 50137, Indonesia",-6.972662,110.430985,4
194,Lumpia Teteh,"Jl. Setia Budi No.170kel, Srondol Wetan, Kec. Banyumanik, Kota Semarang, Jawa Tengah 50263, Indonesia",-7.062303,110.413421,4
202,Nasi Timbel Pajajaran,"Gg. Kina, Jl. Pajajaran No.8/6 B, Pasir Kaliki, Kec. Cicendo, Kota Bandung, Jawa Barat 40173, Indonesia",-6.907587,107.602727,3
203,Nasi Timbel Mangga,"Jl. Mangga No.12, Cihapit, Kec. Bandung Wetan, Kota Bandung, Jawa Barat 40114, Indonesia",-6.914217,107.631003,3
204,Nasi Timbel M11,"Jl. Prof. DR. H. Andi Hakim Nasoetion No.11, RT.02/RW.05, Tegallega, Kecamatan Bogor Tengah, Kota Bogor, Jawa Barat 16129, Indonesia",-6.599299,106.806558,1
205,Nasi Timbel Khas Subang,"Jl. Simpang 5, Pd. Petir, Kec. Bojongsari, Kota Depok, Jawa Barat 16517, Indonesia",-6.364656,106.722861,1
206,Kedai Timbel Dago,"Jl. Ir. H. Juanda No.117, Lb. Siliwangi, Kecamatan Coblong, Kota Bandung, Jawa Barat 40132, Indonesia",-6.892212,107.612971,3
207,Nasi Timbel Bawean,"Jl. Bawean No.3, Merdeka, Kec. Sumur Bandung, Kota Bandung, Jawa Barat 40113, Indonesia",-6.909719,107.618195,3
208,RM. Nasi Timbel Saung Sunda ᮔᮞᮤ ᮒᮤᮙ᮪ᮘᮨᮜ᮪ ᮞᮅᮀ ᮞᮥᮔ᮪ᮓ,"Jl. Sholeh Iskandar No.9, RT.04/RW.03, Cibadak, Kec. Tanah Sereal, Kota Bogor, Jawa Barat 16164, Indonesia",-6.542799,106.772699,1
209,Nasi Timbel Mbak Warsih,"Jl. Cianjur, Kacapiring, Kec. Batununggal, Kota Bandung, Jawa Barat 40271, Indonesia",-6.915879,107.633069,3
210,Nasi Timbel Ukhuwwah / TASIKMAHGAYA,"3JQ5+QCP, Jl. Aceh, Babakan Ciamis, Kec. Sumur Bandung, Kota Bandung, Jawa Barat 40117, Indonesia",-6.910536,107.608593,3
211,WAROENG NASI TIMBEL ORANG SUNDA,"GWQQ+GVX, Jl. Basuki Rahmat, Sukajati, Kec. Haurgeulis, Kabupaten Indramayu, Jawa Barat 45264, Indonesia",-6.461264,107.939703,1
212,Nasi Timbel Pangandaran,"Jl. Pasirjati Endah, Pasir Endah, Kec. Ujung Berung, Kota Bandung, Jawa Barat 40619, Indonesia",-6.906174,107.691871,3
213,Nasi Timbel Komplit Bandoeng,"Jl. Ibrahim Adjie No.429, Kb. Kangkung, Kec. Kiaracondong, Kota Bandung, Jawa Barat 40275, Indonesia",-6.938144,107.642471,3
214,NASI TIMBEL CEU ETI,"Jl. Cikajang 14 No.67, Antapani Tengah, Kec. Antapani, Kota Bandung, Jawa Barat 40291, Indonesia",-6.919069,107.664481,3
215,Warung Nasi Timbel Ma Uneh,"Jl. Nagrog Telok Dengklok No.02/12, Pasanggrahan, Kec. Ujung Berung, Kota Bandung, Jawa Barat 40617, Indonesia",-6.904692,107.714367,3
